HAWK-7A                 
1 56191U 23054P   26115.68870259  .00005696  00000+0  21900-3 0  9996
2 56191  97.2766   4.3630 0002115 182.0167 178.1064 15.26793077169012
HAWK-7B                 
1 56193U 23054R   26115.68863694  .00005790  00000+0  22258-3 0  9995
2 56193  97.2795   2.6079 0001257 175.0506 185.0746 15.26793457169015
HAWK-7C                 
1 56200U 23054Y   26115.68853094  .00005685  00000+0  21860-3 0  9998
2 56200  97.2770   3.3931 0001795 168.8879 191.2400 15.26794294169018
